{"type": "FeatureCollection", "features": [ {"type": "Feature", "properties": {"norad_id": 31288, "name": "FENGYUN 1C DEB", "group": "fengyun-1c-debris", "lat": -33.57471803458853, "lon": -49.99508382693619, "alt_km": 594.941097514712, "timestamp": "2025-12-04T17:48:40.447415+00:00", "meta": {"OBJECT_NAME": "FENGYUN 1C DEB", "OBJECT_ID": "1999-025BNW", "EPOCH": "2025-12-01T23:30:55.588320", "MEAN_MOTION": 14.93648096, "ECCENTRICITY": 0.0022598, "INCLINATION": 98.7492, "RA_OF_ASC_NODE": 132.7992, "ARG_OF_PERICENTER": 325.0003, "MEAN_ANOMALY": 163.0145, "EPHEMERIS_TYPE": 0, "CLASSIFICATION_TYPE": "U", "NORAD_CAT_ID": 31288, "ELEMENT_SET_NO": 999, "REV_AT_EPOCH": 97396, "BSTAR": 0.0058505226, "MEAN_MOTION_DOT": 0.00062582, "MEAN_MOTION_DDOT": 0}, "tle": {"line1": "1 31288U 99025BNW 25335.97981005  .00062582  00000+0  58505-2 0  9991", "line2": "2 31288  98.7492 132.7992 0022598 325.0003 163.0145 14.93648096973969"}}, "geometry": {"type": "Point", "coordinates": [-49.99508382693619, -33.57471803458853]}}, {"type": "Feature", "properties": {"norad_id": 31293, "name": "FENGYUN 1C DEB", "group": "fengyun-1c-debris", "lat": 1.5031157149025804, "lon": 166.97159630716067, "alt_km": 791.3907837265715, "timestamp": "2025-12-04T17:48:40.447426+00:00", "meta": {"OBJECT_NAME": "FENGYUN 1C DEB", "OBJECT_ID": "1999-025BPB", "EPOCH": "2025-12-02T17:58:24.012192", "MEAN_MOTION": 14.30804235, "ECCENTRICITY": 0.01253341, "INCLINATION": 98.4233, "RA_OF_ASC_NODE": 344.817, "ARG_OF_PERICENTER": 274.7233, "MEAN_ANOMALY": 83.9647, "EPHEMERIS_TYPE": 0, "CLASSIFICATION_TYPE": "U", "NORAD_CAT_ID": 31293, "ELEMENT_SET_NO": 999, "REV_AT_EPOCH": 65101, "BSTAR": 0.00011429498, "MEAN_MOTION_DOT": 2.81e-06, "MEAN_MOTION_DDOT": 0}, "tle": {"line1": "1 31293U 99025BPB 25336.74888903  .00000281  00000+0  11429-3 0  9999", "line2": "2 31293  98.4233 344.8170 0125334 274.7233  83.9647 14.30804235651012"}}, "geometry": {"type": "Point", "coordinates": [166.97159630716067, 1.5031157149025804]}}, {"type": "Feature", "properties": {"norad_id": 31294, "name": "FENGYUN 1C DEB", "group": "fengyun-1c-debris", "lat": -31.332152372610608, "lon": -20.06171894272756, "alt_km": 788.2330703442385, "timestamp": "2025-12-04T17:48:40.447436+00:00", "meta": {"OBJECT_NAME": "FENGYUN 1C DEB", "OBJECT_ID": "1999-025BPC", "EPOCH": "2025-11-30T10:27:29.113632", "MEAN_MOTION": 14.15271063, "ECCENTRICITY": 0.01004597, "INCLINATION": 98.5427, "RA_OF_ASC_NODE": 330.5625, "ARG_OF_PERICENTER": 16.5048, "MEAN_ANOMALY": 343.9358, "EPHEMERIS_TYPE": 0, "CLASSIFICATION_TYPE": "U", "NORAD_CAT_ID": 31294, "ELEMENT_SET_NO": 999, "REV_AT_EPOCH": 96679, "BSTAR": 0.00052440304, "MEAN_MOTION_DOT": 1.029e-05, "MEAN_MOTION_DDOT": 0}, "tle": {"line1": "1 31294U 99025BPC 25334.43575363  .00001029  00000+0  52440-3 0  9996", "line2": "2 31294  98.5427 330.5625 0100459  16.5048 343.9358 14.15271063966795"}}, "geometry": {"type": "Point", "coordinates": [-20.06171894272756, -31.332152372610608]}}, {"type": "Feature", "properties": {"norad_id": 31295, "name": "FENGYUN 1C DEB", "group": "fengyun-1c-debris", "lat": 81.1644794137985, "lon": 94.21169191347471, "alt_km": 952.8158215719932, "timestamp": "2025-12-04T17:48:40.447447+00:00", "meta": {"OBJECT_NAME": "FENGYUN 1C DEB", "OBJECT_ID": "1999-025BPD", "EPOCH": "2025-12-03T19:02:37.402080", "MEAN_MOTION": 13.96825074, "ECCENTRICITY": 0.00766913, "INCLINATION": 98.3168, "RA_OF_ASC_NODE": 163.5768, "ARG_OF_PERICENTER": 276.5812, "MEAN_ANOMALY": 82.6627, "EPHEMERIS_TYPE": 0, "CLASSIFICATION_TYPE": "U", "NORAD_CAT_ID": 31295, "ELEMENT_SET_NO": 999, "REV_AT_EPOCH": 95378, "BSTAR": 0.0002442391, "MEAN_MOTION_DOT": 3.09e-06, "MEAN_MOTION_DDOT": 0}, "tle": {"line1": "1 31295U 99025BPD 25337.79348845  .00000309  00000+0  24424-3 0  9993", "line2": "2 31295  98.3168 163.5768 0076691 276.5812  82.6627 13.96825074953781"}}, "geometry": {"type": "Point", "coordinates": [94.21169191347471, 81.1644794137985]}}, {"type": "Feature", "properties": {"norad_id": 31296, "name": "FENGYUN 1C DEB", "group": "fengyun-1c-debris", "lat": -80.09056413626868, "lon": -41.18291306509897, "alt_km": 653.2931233209456, "timestamp": "2025-12-04T17:48:40.447456+00:00", "meta": {"OBJECT_NAME": "FENGYUN 1C DEB", "OBJECT_ID": "1999-025BPE", "EPOCH": "2025-12-04T06:46:18.611904", "MEAN_MOTION": 14.70707137, "ECCENTRICITY": 0.00204045, "INCLINATION": 99.0668, "RA_OF_ASC_NODE": 252.2315, "ARG_OF_PERICENTER": 246.7565, "MEAN_ANOMALY": 113.149, "EPHEMERIS_TYPE": 0, "CLASSIFICATION_TYPE": "U", "NORAD_CAT_ID": 31296, "ELEMENT_SET_NO": 999, "REV_AT_EPOCH": 97225, "BSTAR": 0.01247, "MEAN_MOTION_DOT": 0.00077036, "MEAN_MOTION_DDOT": 0}, "tle": {"line1": "1 31296U 99025BPE 25338.28215986  .00077036  00000+0  12470-1 0  9995", "line2": "2 31296  99.0668 252.2315 0020404 246.7565 113.1490 14.70707137972257"}}, "geometry": {"type": "Point", "coordinates": [-41.18291306509897, -80.09056413626868]}}, {"type": "Feature", "properties": {"norad_id": 31297, "name": "FENGYUN 1C DEB", "group": "fengyun-1c-debris", "lat": 70.61566907013741, "lon": 88.49891846899189, "alt_km": 667.8830375400221, "timestamp": "2025-12-04T17:48:40.447466+00:00", "meta": {"OBJECT_NAME": "FENGYUN 1C DEB", "OBJECT_ID": "1999-025BPF", "EPOCH": "2025-12-03T22:17:26.235168", "MEAN_MOTION": 14.57003841, "ECCENTRICITY": 0.0139636, "INCLINATION": 98.9334, "RA_OF_ASC_NODE": 114.1822, "ARG_OF_PERICENTER": 149.4972, "MEAN_ANOMALY": 341.0174, "EPHEMERIS_TYPE": 0, "CLASSIFICATION_TYPE": "U", "NORAD_CAT_ID": 31297, "ELEMENT_SET_NO": 999, "REV_AT_EPOCH": 99187, "BSTAR": 0.001041, "MEAN_MOTION_DOT": 5.292e-05, "MEAN_MOTION_DDOT": 0}, "tle": {"line1": "1 31297U 99025BPF 25337.92877587  .00005292  00000+0  10410-2 0  9995", "line2": "2 31297  98.9334 114.1822 0139636 149.4972 341.0174 14.57003841991870"}}, "geometry": {"type": "Point", "coordinates": [88.49891846899189, 70.61566907013741]}}, {"type": "Feature", "properties": {"norad_id": 31300, "name": "FENGYUN 1C DEB", "group": "fengyun-1c-debris", "lat": 36.69267586442731, "lon": -115.25787832664967, "alt_km": 817.07294883348, "timestamp": "2025-12-04T17:48:40.447476+00:00", "meta": {"OBJECT_NAME": "FENGYUN 1C DEB", "OBJECT_ID": "1999-025BPJ", "EPOCH": "2025-12-03T10:53:22.055136", "MEAN_MOTION": 14.15051318, "ECCENTRICITY": 0.00612112, "INCLINATION": 99.5437, "RA_OF_ASC_NODE": 56.1633, "ARG_OF_PERICENTER": 86.2813, "MEAN_ANOMALY": 335.9104, "EPHEMERIS_TYPE": 0, "CLASSIFICATION_TYPE": "U", "NORAD_CAT_ID": 31300, "ELEMENT_SET_NO": 999, "REV_AT_EPOCH": 96043, "BSTAR": 0.0018772238, "MEAN_MOTION_DOT": 3.655e-05, "MEAN_MOTION_DDOT": 0}, "tle": {"line1": "1 31300U 99025BPJ 25337.45372749  .00003655  00000+0  18772-2 0  9998", "line2": "2 31300  99.5437  56.1633 0061211  86.2813 335.9104 14.15051318960435"}}, "geometry": {"type": "Point", "coordinates": [-115.25787832664967, 36.69267586442731]}}, {"type": "Feature", "properties": {"norad_id": 31302, "name": "FENGYUN 1C DEB", "group": "fengyun-1c-debris", "lat": -15.450658957792115, "lon": 22.801576575676716, "alt_km": 806.211224795722, "timestamp": "2025-12-04T17:48:40.447486+00:00", "meta": {"OBJECT_NAME": "FENGYUN 1C DEB", "OBJECT_ID": "1999-025BPL", "EPOCH": "2025-12-03T01:39:01.160352", "MEAN_MOTION": 14.27429347, "ECCENTRICITY": 0.00276162, "INCLINATION": 99.4144, "RA_OF_ASC_NODE": 18.3726, "ARG_OF_PERICENTER": 82.9913, "MEAN_ANOMALY": 307.4718, "EPHEMERIS_TYPE": 0, "CLASSIFICATION_TYPE": "U", "NORAD_CAT_ID": 31302, "ELEMENT_SET_NO": 999, "REV_AT_EPOCH": 96220, "BSTAR": 0.0018601189, "MEAN_MOTION_DOT": 4.535e-05, "MEAN_MOTION_DDOT": 0}, "tle": {"line1": "1 31302U 99025BPL 25337.06876343  .00004535  00000+0  18601-2 0  9995", "line2": "2 31302  99.4144  18.3726 0027616  82.9913 307.4718 14.27429347962205"}}, "geometry": {"type": "Point", "coordinates": [22.801576575676716, -15.450658957792115]}}, {"type": "Feature", "properties": {"norad_id": 31303, "name": "FENGYUN 1C DEB", "group": "fengyun-1c-debris", "lat": -8.17662034013398, "lon": 173.93056257355326, "alt_km": 851.930539786048, "timestamp": "2025-12-04T17:48:40.447496+00:00", "meta": {"OBJECT_NAME": "FENGYUN 1C DEB", "OBJECT_ID": "1999-025BPM", "EPOCH": "2025-12-04T06:42:41.117184", "MEAN_MOTION": 14.11019674, "ECCENTRICITY": 0.0011198, "INCLINATION": 98.7053, "RA_OF_ASC_NODE": 354.7438, "ARG_OF_PERICENTER": 175.3367, "MEAN_ANOMALY": 184.7911, "EPHEMERIS_TYPE": 0, "CLASSIFICATION_TYPE": "U", "NORAD_CAT_ID": 31303, "ELEMENT_SET_NO": 999, "REV_AT_EPOCH": 96199, "BSTAR": 0.0002187907, "MEAN_MOTION_DOT": 3.51e-06, "MEAN_MOTION_DDOT": 0}, "tle": {"line1": "1 31303U 99025BPM 25338.27964256  .00000351  00000+0  21879-3 0  9995", "line2": "2 31303  98.7053 354.7438 0011198 175.3367 184.7911 14.11019674961999"}}, "geometry": {"type": "Point", "coordinates": [173.93056257355326, -8.17662034013398]}}, {"type": "Feature", "properties": {"norad_id": 31311, "name": "FENGYUN 1C DEB", "group": "fengyun-1c-debris", "lat": 68.22662874449358, "lon": 36.989206084060925, "alt_km": 775.5205136964169, "timestamp": "2025-12-04T17:48:40.447506+00:00", "meta": {"OBJECT_NAME": "FENGYUN 1C DEB", "OBJECT_ID": "1999-025BPP", "EPOCH": "2025-12-03T11:33:01.081728", "MEAN_MOTION": 14.29607832, "ECCENTRICITY": 0.00195182, "INCLINATION": 98.8541, "RA_OF_ASC_NODE": 58.6776, "ARG_OF_PERICENTER": 113.3366, "MEAN_ANOMALY": 311.3178, "EPHEMERIS_TYPE": 0, "CLASSIFICATION_TYPE": "U", "NORAD_CAT_ID": 31311, "ELEMENT_SET_NO": 999, "REV_AT_EPOCH": 96089, "BSTAR": 0.0025825549, "MEAN_MOTION_DOT": 6.585e-05, "MEAN_MOTION_DDOT": 0}, "tle": {"line1": "1 31311U 99025BPP 25337.48126252  .00006585  00000+0  25826-2 0  9992", "line2": "2 31311  98.8541  58.6776 0019518 113.3366 311.3178 14.29607832960890"}}, "geometry": {"type": "Point", "coordinates": [36.989206084060925, 68.22662874449358]}}]}